CZ-2C R/B               
1 54039U 22132E   25354.90750147  .00024497  00000+0  35879-3 0  9993
2 54039  97.2939 351.2648 0021903  29.4397 330.8086 15.55282433178103
GSLV R/B                
1 54149U 22138AN  25355.01552883  .00001717  00000+0  14912-3 0  9996
2 54149  87.3823 192.7022 0024137  78.5128 281.8812 14.96167401172163
XRISM                   
1 57800U 23137A   25354.56632546  .00003437  00000+0  19838-3 0  9990
2 57800  31.0028  75.0095 0007689 323.7715  36.2402 15.10405812125811
ACS3                    
1 59588U 24077B   25355.27435219  .00019496  00000+0  16599-1 0  9997
2 59588  97.2627 308.9730 0075822 317.3654  42.1638 13.85858922 83324
SZ-21 MODULE            
1 66515U 25246C   25355.10297298  .00021377  00000+0  23274-3 0  9990
2 66515  41.4772 325.0132 0005392 304.7401  55.2931 15.62895195  5757
